YAOGAN-43 01G           
1 60464U 24148G   26068.44348481  .00010133  00000+0  35873-3 0  9993
2 60464  35.0006  62.0013 0007382 306.3543  53.6492 15.28332833 87004
STARLINK-35403          
1 66081U 25235Z   26068.80604402  .00020620  00000+0  70629-3 0  9990
2 66081  53.1594 244.4130 0001017  94.1706 265.9411 15.30204053 22942
